{"type":"FeatureCollection","features":[{"type":"Feature","id":"DYFI.1","properties":{"code":"1","name":"UTM:(42T 052 457 10000)","instrumentType":"OBSERVED","source":"USGS (Did You Feel It?)","network":"DYFI","commType":"","location":"","intensity":3.0,"intensity_flag":"","pga":null,"pgv":null,"distance":458.20,"channels":[{"name":"DERIVED","amplitudes":[{"name":"pga","value":null,"units":"%g","flag":"0"},{"name":"pgv","value":null,"units":"cm/s","flag":"0"},{"name":"psa03","value":null,"units":"%g","flag":"0"},{"name":"psa10","value":null,"units":"%g","flag":"0"},{"name":"psa30","value":null,"units":"%g","flag":"0"}]}]},"geometry":{"type":"Point","coordinates":[69.29870,41.32610]}}]}