<?xml version="1.0" encoding="UTF-8" standalone="yes"?>
<!DOCTYPE shakemap-data [
<!ELEMENT shakemap-data (earthquake,stationlist)>
<!ELEMENT stationlist (station+)>
<!ATTLIST stationlist
  created	CDATA	#REQUIRED
>

<!ELEMENT station (comp+)>
<!ATTLIST station
  code		CDATA 			#REQUIRED
  name		CDATA 			#REQUIRED
  insttype	CDATA 			#REQUIRED
  lat		CDATA 			#REQUIRED
  lon		CDATA 			#REQUIRED
  source	(SCSN|CGS|NSMP) 	'SCSN'
  netid		CDATA			#REQUIRED
  commtype	(DIG|ANA) 		'DIG'
  dist          CDATA                   '10.0'
  loc		CDATA			''
>

<!ELEMENT comp (acc,vel,psa*)>
<!ATTLIST comp
  name          CDATA  #REQUIRED
  originalname  CDATA  #IMPLIED
>

<!ELEMENT acc EMPTY>
<!ELEMENT vel EMPTY>
<!ELEMENT psa03 EMPTY>
<!ELEMENT psa10 EMPTY>
<!ELEMENT psa30 EMPTY>
<!ATTLIST acc
  value  CDATA         #REQUIRED
  flag   CDATA        ''
>
<!ATTLIST vel
  value CDATA          #REQUIRED
  flag  CDATA         ''
>
<!ATTLIST psa03
  value CDATA          #REQUIRED
  flag  CDATA         ''
>
<!ATTLIST psa10
  value CDATA          #REQUIRED
  flag  CDATA         ''
>
<!ATTLIST psa30
  value CDATA          #REQUIRED
  flag  CDATA         ''
>
<!ELEMENT  earthquake EMPTY>
<!ATTLIST earthquake
  id 		ID	#REQUIRED
  lat		CDATA	#REQUIRED
  lon		CDATA	#REQUIRED
  mag		CDATA	#REQUIRED
  year          CDATA   #REQUIRED
  month         CDATA   #REQUIRED
  day           CDATA   #REQUIRED
  hour          CDATA   #REQUIRED
  minute        CDATA   #REQUIRED
  second        CDATA   #REQUIRED
  timezone      CDATA   #REQUIRED
  depth		CDATA	#REQUIRED
  type		CDATA	#REQUIRED
  locstring	CDATA	#REQUIRED
  pga		CDATA   #REQUIRED
  pgv		CDATA   #REQUIRED
  sp03		CDATA   #REQUIRED
  sp10		CDATA   #REQUIRED
  sp30		CDATA   #REQUIRED
  created	CDATA	#REQUIRED
>
]>
<shakemap-data code_version="3.5" map_version="3">
<earthquake id="us10007ca5" lat="39.23780" lon="74.04720" mag="6.6" year="2016" month="11" day="25" hour="14" minute="24" second="29" timezone="GMT" depth="12.57" network="us" locstring="SOUTHERN XINJIANG, CHINA" created="1480115307" />
<stationlist created="1480115307">
<station code="1" name="UTM:(42T 052 457 10000)" insttype="OBSERVED" lat="41.3261" lon="69.2987" dist="458.199005" source="USGS (Did You Feel It?)" netid="DYFI" commtype="" loc="" intensity="3.0">
<comp name="DERIVED">
<pga value="nan" flag="0" />
<pgv value="nan" flag="0" />
<psa03 value="nan" flag="0" />
<psa10 value="nan" flag="0" />
<psa30 value="nan" flag="0" />
</comp>
</station>

</stationlist>
</shakemap-data>
